#aV2012  1  9  0  0   .00000000      96 DD+AD WGS84 FIT  NGA
## 1670  86400.00000000   900.00000000 55935  .0000000000000
+   31     1  2  3  4  5  6  7  8  9 10 11 12 13 14 15 16 17
+         18 19 20 21 22 23 25 26 27 28 29 30 31 32  0  0  0
+          0  0  0  0  0  0  0  0  0  0  0  0  0  0  0  0  0
+          0  0  0  0  0  0  0  0  0  0  0  0  0  0  0  0  0
+          0  0  0  0  0  0  0  0  0  0  0  0  0  0  0  0  0
++         0  0  0  0  0  0  0  0  0  0  0  0  0  0  0  0  0
++         0  0  0  0  0  0  0  0  0  0  0  0  0  0  0  0  0
++         0  0  0  0  0  0  0  0  0  0  0  0  0  0  0  0  0
++         0  0  0  0  0  0  0  0  0  0  0  0  0  0  0  0  0
++         0  0  0  0  0  0  0  0  0  0  0  0  0  0  0  0  0
%c cc cc ccc ccc cccc cccc cccc cccc ccccc ccccc ccccc ccccc
%c cc cc ccc ccc cccc cccc cccc cccc ccccc ccccc ccccc ccccc
%f  0.0000000  0.000000000  0.00000000000  0.000000000000000
%f  0.0000000  0.000000000  0.00000000000  0.000000000000000
%i    0    0    0    0      0      0      0      0         0
%i    0    0    0    0      0      0      0      0         0
/*      NGA, ST. LOUIS,MO.                                  
/*   EPHEMERIS COMPUTED FROM  3 DAYS OF DATA                
/* CCCCCCCCCCCCCCCCCCCCCCCCCCCCCCCCCCCCCCCCCCCCCCCCCCCCCCCCC
/* CCCCCCCCCCCCCCCCCCCCCCCCCCCCCCCCCCCCCCCCCCCCCCCCCCCCCCCCC
*  2012  1  9  9 15   .00000000                                                 
P  1  13769.059133 -21883.299484   6035.954626    174.474950                    
V  1   -432.631950   8158.900783  30491.669605       .133743                    
P  2 -16504.807680    453.187084 -20623.549392    373.926601                    
V  2   8953.205455 -25051.159876  -8182.755153       .016518                    
P  3  21116.737991   5878.130166  14739.279673    819.728335                    
V  3  11738.796547  15774.664522 -22136.868410       .049492                    
P  4 -11542.717424 -12003.884932 -20874.714448     58.109892                    
V  4  11174.755201 -23619.579799   7819.302454       .113367                    
P  5 -26499.875927   2154.585179  -1488.526651   -268.372031                    
V  5   1483.051233  -3191.014685 -31402.432394      -.046707                    
P  6  21036.719223  10223.567364  12966.797539     22.882369                    
V  6   8439.217999  14076.739623 -24777.496169       .031106                    
P  7   5172.678411 -24733.566818   7788.392782     48.755615                    
V  7   6200.844463  -8092.304382 -30135.492629       .025616                    
P  8  -2407.661176 -19486.198850  17656.790295       .334393                    
V  8  11861.873520 -19106.184893 -20083.571883       .000069                    
P  9 -14713.316679  19919.947883   9086.458684    130.611616                    
V  9   2817.157892 -12125.873496  29359.158905       .025878                    
P 10 -17467.822326 -10787.208769 -17302.797699    -25.029779                    
V 10  21125.031692  -3768.182498 -18854.409110      -.012506                    
P 11  13324.101967 -18407.715602  13119.358634   -221.178430                    
V 11   1774.448711  18022.898940  23175.129964      -.037303                    
P 12 -19243.325401  11452.443322 -14130.779423     45.541926                    
V 12 -18092.712689    -93.739856  24719.735891       .022230                    
P 13  -1942.180048 -21890.012919 -14996.769852    231.706938                    
V 13  11139.015395  15186.348128 -23907.560507      -.020992                    
P 14  15747.337450  21358.729953  -2146.469073    189.300950                    
V 14   -125.709192   3581.874095  31943.029362       .015564                    
P 15 -12977.051835   8549.076796  21548.070087    -94.973390                    
V 15 -16843.734077 -21608.744811  -1370.194399       .007424                    
P 16  26630.377595   -694.713625  -2132.336387   -217.991581                    
V 16  -2533.585225   2184.291534 -31804.222677      -.017935                    
P 17 -15024.823211 -22061.331730    454.427465    155.852935                    
V 17   2315.538109  -1147.947450  31629.504451      -.021709                    
P 18    656.181152  16030.142078  21496.968902    175.895940                    
V 18 -26518.323257   2548.240681  -1473.517311       .018159                    
P 19  14953.708856  -4452.814577  21497.653307   -223.763094                    
V 19  14208.983059  23356.977340  -4671.548635      -.038701                    
P 20  17100.822092 -13986.216755 -14854.577142     59.692823                    
V 20  18887.643170   -338.668636  22376.359905       .008007                    
P 21   -731.326531  23692.514390  11806.317966   -196.406858                    
V 21  -8999.427238  12003.322966 -26224.568091      -.025651                    
P 22  16143.451126  11690.761274  17780.456855    143.015262                    
V 22 -21974.181806   4323.305526  17164.761718      -.000552                    
P 23   6331.707045 -15530.058602 -20481.739657    243.482513                    
V 23  16321.055820  20470.811710 -10814.736563      -.033270                    
P 25  -8310.033063  15138.587100 -20193.356028     30.967303                    
V 25 -25495.390102   2312.134376  12276.825838       .002296                    
P 26 -18042.871006  -6252.529423  18024.997435   -292.448932                    
V 26 -11791.001600 -20855.593893 -18054.472699      -.141048                    
P 27 -16660.232580  13191.453030  16287.744277    344.445307                    
V 27   5518.472794 -18911.866062  22250.230744       .039051                    
P 28 -12780.255109 -12691.988801  20148.834138    101.012888                    
V 28  24152.186599  -2515.012041  13888.848641       .036849                    
P 29   1482.702030  21387.932820 -15638.507688    273.469678                    
V 29 -12861.164225 -15375.889836 -22118.203367       .033952                    
P 30  23311.149046   3796.618651 -12511.244884     -3.318460                    
V 30 -14465.727346   5572.785218 -25989.944007      -.130993                    
P 31  11658.654256   9502.480000 -21660.342887    193.294986                    
V 31 -11788.953534  25368.988761   4961.811374       .048409                    
P 32  23497.301692  -7273.311239  -9166.277101   -389.991281                    
V 32  12218.746245   2813.457664  28834.299985      -.056842                    
EOF
